{
  "type": "FeatureCollection",
  "features": [
    {
      "type": "Feature",
      "properties": {
        "norad_id": 66814,
        "name": "STARLINK-35984",
        "group": "last-30-days",
        "lat": -36.84337852740657,
        "lon": 50.04207902944356,
        "alt_km": 417.2014926663105,
        "timestamp": "2025-12-25T07:41:08.449529+00:00",
        "meta_object_name": "STARLINK-35984",
        "meta_object_id": "2025-278Z",
        "meta_epoch": "2025-12-24T22:00:03.000096",
        "meta_mean_motion": 15.50488139,
        "meta_eccentricity": 0.00015822,
        "meta_inclination": 43.0005,
        "meta_ra_of_asc_node": 178.8831,
        "meta_arg_of_pericenter": 276.0125,
        "meta_mean_anomaly": 230.3198,
        "meta_ephemeris_type": 0,
        "meta_classification_type": "U",
        "meta_norad_cat_id": 66814,
        "meta_element_set_no": 999,
        "meta_rev_at_epoch": 500,
        "meta_bstar": 0.0025603254,
        "meta_mean_motion_dot": 0.00152325,
        "meta_mean_motion_ddot": 0,
        "tle_line1": "1 66814U 25278Z   25358.91670139  .00152325  00000+0  25603-2 0  9993",
        "tle_line2": "2 66814  43.0005 178.8831 0001582 276.0125 230.3198 15.50488139  5009"
      },
      "geometry": {
        "type": "Point",
        "coordinates": [
          50.04207902944356,
          -36.84337852740657
        ]
      }
    },
    {
      "type": "Feature",
      "properties": {
        "norad_id": 66815,
        "name": "STARLINK-35985",
        "group": "last-30-days",
        "lat": -36.04403759257681,
        "lon": 47.872086707151645,
        "alt_km": 417.2121915064163,
        "timestamp": "2025-12-25T07:41:08.449539+00:00",
        "meta_object_name": "STARLINK-35985",
        "meta_object_id": "2025-278AA",
        "meta_epoch": "2025-12-24T22:00:03.000096",
        "meta_mean_motion": 15.50497276,
        "meta_eccentricity": 0.00015912,
        "meta_inclination": 43.0005,
        "meta_ra_of_asc_node": 178.8874,
        "meta_arg_of_pericenter": 272.6823,
        "meta_mean_anomaly": 231.7365,
        "meta_ephemeris_type": 0,
        "meta_classification_type": "U",
        "meta_norad_cat_id": 66815,
        "meta_element_set_no": 999,
        "meta_rev_at_epoch": 500,
        "meta_bstar": 0.0018117831,
        "meta_mean_motion_dot": 0.001071,
        "meta_mean_motion_ddot": 0,
        "tle_line1": "1 66815U 25278AA  25358.91670139  .00107100  00000+0  18118-2 0  9998",
        "tle_line2": "2 66815  43.0005 178.8874 0001591 272.6823 231.7365 15.50497276  5007"
      },
      "geometry": {
        "type": "Point",
        "coordinates": [
          47.872086707151645,
          -36.04403759257681
        ]
      }
    },
    {
      "type": "Feature",
      "properties": {
        "norad_id": 66816,
        "name": "STARLINK-36098",
        "group": "last-30-days",
        "lat": -32.49531004755416,
        "lon": 39.66702055602545,
        "alt_km": 417.0271486465326,
        "timestamp": "2025-12-25T07:41:08.449551+00:00",
        "meta_object_name": "STARLINK-36098",
        "meta_object_id": "2025-278AB",
        "meta_epoch": "2025-12-24T22:00:03.000096",
        "meta_mean_motion": 15.50492824,
        "meta_eccentricity": 0.00017101,
        "meta_inclination": 43.0003,
        "meta_ra_of_asc_node": 178.9075,
        "meta_arg_of_pericenter": 271.7964,
        "meta_mean_anomaly": 224.9519,
        "meta_ephemeris_type": 0,
        "meta_classification_type": "U",
        "meta_norad_cat_id": 66816,
        "meta_element_set_no": 999,
        "meta_rev_at_epoch": 475,
        "meta_bstar": 0.0019805555,
        "meta_mean_motion_dot": 0.00117244,
        "meta_mean_motion_ddot": 0,
        "tle_line1": "1 66816U 25278AB  25358.91670139  .00117244  00000+0  19806-2 0  9994",
        "tle_line2": "2 66816  43.0003 178.9075 0001710 271.7964 224.9519 15.50492824  4759"
      },
      "geometry": {
        "type": "Point",
        "coordinates": [
          39.66702055602545,
          -32.49531004755416
        ]
      }
    },
    {
      "type": "Feature",
      "properties": {
        "norad_id": 66817,
        "name": "STARLINK-35995",
        "group": "last-30-days",
        "lat": -34.338765734353565,
        "lon": 43.683263286975915,
        "alt_km": 417.1322208389165,
        "timestamp": "2025-12-25T07:41:08.449563+00:00",
        "meta_object_name": "STARLINK-35995",
        "meta_object_id": "2025-278AC",
        "meta_epoch": "2025-12-24T22:00:03.000096",
        "meta_mean_motion": 15.50497222,
        "meta_eccentricity": 0.0001665,
        "meta_inclination": 43.0004,
        "meta_ra_of_asc_node": 178.8973,
        "meta_arg_of_pericenter": 273.2144,
        "meta_mean_anomaly": 227.3697,
        "meta_ephemeris_type": 0,
        "meta_classification_type": "U",
        "meta_norad_cat_id": 66817,
        "meta_element_set_no": 999,
        "meta_rev_at_epoch": 491,
        "meta_bstar": 0.0018163268,
        "meta_mean_motion_dot": 0.00107374,
        "meta_mean_motion_ddot": 0,
        "tle_line1": "1 66817U 25278AC  25358.91670139  .00107374  00000+0  18163-2 0  9993",
        "tle_line2": "2 66817  43.0004 178.8973 0001665 273.2144 227.3697 15.50497222  4912"
      },
      "geometry": {
        "type": "Point",
        "coordinates": [
          43.683263286975915,
          -34.338765734353565
        ]
      }
    },
    {
      "type": "Feature",
      "properties": {
        "norad_id": 66818,
        "name": "STARLINK-35994",
        "group": "last-30-days",
        "lat": -33.07281761072999,
        "lon": 40.87707719238256,
        "alt_km": 420.9553420371203,
        "timestamp": "2025-12-25T07:41:08.449573+00:00",
        "meta_object_name": "STARLINK-35994",
        "meta_object_id": "2025-278AD",
        "meta_epoch": "2025-12-24T22:00:03.000096",
        "meta_mean_motion": 15.50905521,
        "meta_eccentricity": 0.00013314,
        "meta_inclination": 43.0002,
        "meta_ra_of_asc_node": 178.9023,
        "meta_arg_of_pericenter": 278.9346,
        "meta_mean_anomaly": 219.665,
        "meta_ephemeris_type": 0,
        "meta_classification_type": "U",
        "meta_norad_cat_id": 66818,
        "meta_element_set_no": 999,
        "meta_rev_at_epoch": 491,
        "meta_bstar": -0.035441627,
        "meta_mean_motion_dot": -0.01891372,
        "meta_mean_motion_ddot": 0,
        "tle_line1": "1 66818U 25278AD  25358.91670139 -.01891372  00000+0 -35442-1 0  9993",
        "tle_line2": "2 66818  43.0002 178.9023 0001331 278.9346 219.6650 15.50905521  4913"
      },
      "geometry": {
        "type": "Point",
        "coordinates": [
          40.87707719238256,
          -33.07281761072999
        ]
      }
    },
    {
      "type": "Feature",
      "properties": {
        "norad_id": 66819,
        "name": "STARLINK-35989",
        "group": "last-30-days",
        "lat": -35.21023689906917,
        "lon": 45.757766522004836,
        "alt_km": 417.16247249558546,
        "timestamp": "2025-12-25T07:41:08.449583+00:00",
        "meta_object_name": "STARLINK-35989",
        "meta_object_id": "2025-278AE",
        "meta_epoch": "2025-12-24T22:00:03.000096",
        "meta_mean_motion": 15.504952,
        "meta_eccentricity": 0.0001559,
        "meta_inclination": 43.0004,
        "meta_ra_of_asc_node": 178.8926,
        "meta_arg_of_pericenter": 268.5556,
        "meta_mean_anomaly": 233.9472,
        "meta_ephemeris_type": 0,
        "meta_classification_type": "U",
        "meta_norad_cat_id": 66819,
        "meta_element_set_no": 999,
        "meta_rev_at_epoch": 491,
        "meta_bstar": 0.001863769,
        "meta_mean_motion_dot": 0.00110219,
        "meta_mean_motion_ddot": 0,
        "tle_line1": "1 66819U 25278AE  25358.91670139  .00110219  00000+0  18638-2 0  9994",
        "tle_line2": "2 66819  43.0004 178.8926 0001559 268.5556 233.9472 15.50495200  4916"
      },
      "geometry": {
        "type": "Point",
        "coordinates": [
          45.757766522004836,
          -35.21023689906917
        ]
      }
    },
    {
      "type": "Feature",
      "properties": {
        "norad_id": 66820,
        "name": "KOMPSAT-7",
        "group": "last-30-days",
        "lat": -33.17836991244145,
        "lon": 119.93009913069396,
        "alt_km": 563.2824619954526,
        "timestamp": "2025-12-25T07:41:08.449593+00:00",
        "meta_object_name": "KOMPSAT-7",
        "meta_object_id": "2025-279A",
        "meta_epoch": "2025-12-24T22:44:08.567232",
        "meta_mean_motion": 15.00672035,
        "meta_eccentricity": 0.00112396,
        "meta_inclination": 97.6459,
        "meta_ra_of_asc_node": 304.6024,
        "meta_arg_of_pericenter": 222.2186,
        "meta_mean_anomaly": 137.8173,
        "meta_ephemeris_type": 0,
        "meta_classification_type": "U",
        "meta_norad_cat_id": 66820,
        "meta_element_set_no": 999,
        "meta_rev_at_epoch": 348,
        "meta_bstar": 0.00024503699,
        "meta_mean_motion_dot": 3.045e-05,
        "meta_mean_motion_ddot": 0,
        "tle_line1": "1 66820U 25279A   25358.94732138  .00003045  00000+0  24504-3 0  9996",
        "tle_line2": "2 66820  97.6459 304.6024 0011239 222.2186 137.8173 15.00672035  3486"
      },
      "geometry": {
        "type": "Point",
        "coordinates": [
          119.93009913069396,
          -33.17836991244145
        ]
      }
    }
  ]
}